{
  "52313": {
    "noradId": "52313",
    "tle": [
      "1 52313C 22041BE  26071.83381944 -.00006956  00000+0 -43604-3 0   717",
      "2 52313  53.2157  75.0072 0001219  86.2231 250.6187 15.08858547    16"
    ]
  },
  "52331": {
    "noradId": "52331",
    "tle": [
      "1 52331C 22045A   26071.82895833  .00016234  00000+0  10179-2 0   715",
      "2 52331  53.2156 195.0303 0001305  93.3642 277.1171 15.08826429    17"
    ]
  },
  "52332": {
    "noradId": "52332",
    "tle": [
      "1 52332C 22045B   26071.82895833  .00009562  00000+0  59962-3 0   716",
      "2 52332  53.2151 195.0400 0001649  93.4322 211.8436 15.08825680    15"
    ]
  },
  "52333": {
    "noradId": "52333",
    "tle": [
      "1 52333C 22045C   26071.82756944  .00006109  00000+0  38346-3 0   713",
      "2 52333  53.2149 195.0373 0001166  88.6033 234.4421 15.08798697    13"
    ]
  },
  "52334": {
    "noradId": "52334",
    "tle": [
      "1 52334C 22045D   26071.82826389  .00010707  00000+0  67178-3 0   719",
      "2 52334  53.2153 195.0336 0001402  91.9959 294.7806 15.08807527    14"
    ]
  },
  "52335": {
    "noradId": "52335",
    "tle": [
      "1 52335C 22045E   26071.83243056  .00016587  00000+0  10400-2 0   712",
      "2 52335  53.2155 195.0144 0001376  84.2684 345.0908 15.08825105    19"
    ]
  },
  "52336": {
    "noradId": "52336",
    "tle": [
      "1 52336C 22045F   26071.83034722  .00014042  00000+0  88050-3 0   712",
      "2 52336  53.2143 194.8191 0001269  76.4911 121.6676 15.08826160    15"
    ]
  },
  "52337": {
    "noradId": "52337",
    "tle": [
      "1 52337C 22045G   26071.83104167  .00003884  00000+0  24356-3 0   715",
      "2 52337  53.2152 195.0220 0001067  95.9906 265.8157 15.08833955    13"
    ]
  },
  "52339": {
    "noradId": "52339",
    "tle": [
      "1 52339C 22045J   26071.82895833 -.00067560  00000+0 -42346-2 0   714",
      "2 52339  53.2150 194.6719 0001211  93.8138 216.9100 15.08922893    11"
    ]
  },
  "52340": {
    "noradId": "52340",
    "tle": [
      "1 52340C 22045K   26071.82895833  .00016905  00000+0  10600-2 0   719",
      "2 52340  53.2144 185.0281 0001224  84.5168 240.9709 15.08823210    13"
    ]
  },
  "52341": {
    "noradId": "52341",
    "tle": [
      "1 52341C 22045L   26071.83312500  .00011080  00000+0  69483-3 0   719",
      "2 52341  53.2146 194.9621 0001246  82.4685  70.6805 15.08825047    13"
    ]
  },
  "52342": {
    "noradId": "52342",
    "tle": [
      "1 52342C 22045M   26071.82826389  .00017188  00000+0  10778-2 0   711",
      "2 52342  53.2148 185.1479 0001329  86.7569 214.8862 15.08822700    17"
    ]
  },
  "52343": {
    "noradId": "52343",
    "tle": [
      "1 52343C 22045N   26071.83104167  .00015591  00000+0  97769-3 0   718",
      "2 52343  53.2149 195.0207 0001245  76.0202 225.8000 15.08821944    16"
    ]
  },
  "52344": {
    "noradId": "52344",
    "tle": [
      "1 52344C 22045P   26071.82618056  .00016736  00000+0  10493-2 0   715",
      "2 52344  53.2145 185.1094 0001303  88.4894 261.8491 15.08828230    15"
    ]
  },
  "52345": {
    "noradId": "52345",
    "tle": [
      "1 52345C 22045Q   26071.82548611  .00016998  00000+0  10660-2 0   711",
      "2 52345  53.2155 185.2092 0001169  86.8113 114.4995 15.08818858    19"
    ]
  },
  "52346": {
    "noradId": "52346",
    "tle": [
      "1 52346C 22045R   26071.82340278  .00005774  00000+0  36207-3 0   717",
      "2 52346  53.2143 185.0651 0001255  94.5371 275.5426 15.08830615    17"
    ]
  },
  "52347": {
    "noradId": "52347",
    "tle": [
      "1 52347C 22045S   26071.82756944  .00009109  00000+0  57122-3 0   714",
      "2 52347  53.2143 185.0444 0001126  82.7219 249.9961 15.08826546    12"
    ]
  },
  "52348": {
    "noradId": "52348",
    "tle": [
      "1 52348C 22045T   26071.82687500  .00007877  00000+0  49394-3 0   718",
      "2 52348  53.2149 185.0400 0001204  90.6536 343.4920 15.08828909    18"
    ]
  },
  "52349": {
    "noradId": "52349",
    "tle": [
      "1 52349C 22045U   26071.83173611  .00015741  00000+0  98690-3 0   715",
      "2 52349  53.2145 185.0175 0001118  88.4755 312.0746 15.08830131    14"
    ]
  },
  "52350": {
    "noradId": "52350",
    "tle": [
      "1 52350C 22045V   26071.82965278  .00015801  00000+0  99086-3 0   711",
      "2 52350  53.2154 185.0279 0001582  89.8466  19.4163 15.08821869    19"
    ]
  },
  "52352": {
    "noradId": "52352",
    "tle": [
      "1 52352C 22045X   26071.83104167  .00016531  00000+0  10366-2 0   710",
      "2 52352  53.2156 185.0207 0001190  82.1441  94.6557 15.08822754    14"
    ]
  },
  "52353": {
    "noradId": "52353",
    "tle": [
      "1 52353C 22045Y   26071.82756944  .00016600  00000+0  10406-2 0   718",
      "2 52353  53.2154 185.0367 0001223  94.4091  23.4944 15.08835313    19"
    ]
  },
  "52355": {
    "noradId": "52355",
    "tle": [
      "1 52355C 22045AA  26071.82618056  .00014014  00000+0  87890-3 0   710",
      "2 52355  53.2156 185.0427 0001182  85.0311  45.3630 15.08819264    17"
    ]
  },
  "52356": {
    "noradId": "52356",
    "tle": [
      "1 52356C 22045AB  26071.83243056  .00008457  00000+0  53034-3 0   713",
      "2 52356  53.2153 185.0424 0001324  84.4261 139.9079 15.08826273    12"
    ]
  },
  "52357": {
    "noradId": "52357",
    "tle": [
      "1 52357C 22045AC  26071.83173611  .00017024  00000+0  10674-2 0   715",
      "2 52357  53.2156 185.0175 0001319  88.5758 112.0123 15.08826027    18"
    ]
  },
  "52358": {
    "noradId": "52358",
    "tle": [
      "1 52358C 22045AD  26071.82618056  .00015059  00000+0  94396-3 0   712",
      "2 52358  53.2149 185.0418 0001270  87.5038 182.8420 15.08836053    12"
    ]
  },
  "52359": {
    "noradId": "52359",
    "tle": [
      "1 52359C 22045AE  26071.82270833 -.00011127  00000+0 -69768-3 0   719",
      "2 52359  53.2157 185.0684 0001353  85.9483  80.3486 15.08854669    12"
    ]
  },
  "52361": {
    "noradId": "52361",
    "tle": [
      "1 52361C 22045AG  26071.82756944 -.00003778  00000+0 -23686-3 0   716",
      "2 52361  53.2155 185.0361 0001297  87.9590 149.9617 15.08847791    19"
    ]
  },
  "52362": {
    "noradId": "52362",
    "tle": [
      "1 52362C 22045AH  26071.83312500 -.00015237  00000+0 -95540-3 0   715",
      "2 52362  53.2156 175.0104 0001289  83.2933 279.8233 15.08856299    16"
    ]
  },
  "52363": {
    "noradId": "52363",
    "tle": [
      "1 52363C 22045AJ  26071.83104167 -.00011966  00000+0 -75091-3 0   718",
      "2 52363  53.2152 185.0200 0001475  91.4343 185.4807 15.08823408    19"
    ]
  },
  "52364": {
    "noradId": "52364",
    "tle": [
      "1 52364C 22045AK  26071.82826389  .00012327  00000+0  77292-3 0   710",
      "2 52364  53.2150 174.9456 0001297  85.3438 331.4096 15.08828664    19"
    ]
  },
  "52365": {
    "noradId": "52365",
    "tle": [
      "1 52365C 22045AL  26071.82756944  .00011781  00000+0  73867-3 0   717",
      "2 52365  53.2154 175.0359 0001240  92.5750 200.3508 15.08831790    19"
    ]
  },
  "52366": {
    "noradId": "52366",
    "tle": [
      "1 52366C 22045AM  26071.83381944  .00016152  00000+0  10127-2 0   719",
      "2 52366  53.2153 175.0078 0001343  82.1538 344.7263 15.08827241    17"
    ]
  },
  "52367": {
    "noradId": "52367",
    "tle": [
      "1 52367C 22045AN  26071.83312500  .00016716  00000+0  10491-2 0   712",
      "2 52367  53.2157 175.0104 0001361  88.5066 294.7375 15.08788331    12"
    ]
  },
  "52368": {
    "noradId": "52368",
    "tle": [
      "1 52368C 22045AP  26071.81090278  .00017366  00000+0  10880-2 0   710",
      "2 52368  53.2146 175.1111 0001208  99.7855 262.4814 15.08853712    16"
    ]
  },
  "52369": {
    "noradId": "52369",
    "tle": [
      "1 52369C 22045AQ  26071.82756944  .00009119  00000+0  57186-3 0   719",
      "2 52369  53.2154 175.0353 0001312  90.0541 282.8885 15.08826385    15"
    ]
  },
  "52370": {
    "noradId": "52370",
    "tle": [
      "1 52370C 22045AR  26071.83173611  .00017108  00000+0  10728-2 0   713",
      "2 52370  53.2151 175.0276 0001323  82.6352 347.7396 15.08823728    13"
    ]
  },
  "52371": {
    "noradId": "52371",
    "tle": [
      "1 52371C 22045AS  26071.81159722  .00019388  00000+0  12164-2 0   717",
      "2 52371  53.2149 175.1183 0001355  86.9320 254.0991 15.08801915    11"
    ]
  },
  "52372": {
    "noradId": "52372",
    "tle": [
      "1 52372C 22045AT  26071.82687500 -.00010568  00000+0 -66252-3 0   710",
      "2 52372  53.2144 175.0392 0001281  87.3499  21.7824 15.08859587    10"
    ]
  },
  "52373": {
    "noradId": "52373",
    "tle": [
      "1 52373C 22045AU  26071.83034722  .00015779  00000+0  98912-3 0   719",
      "2 52373  53.2144 175.0246 0000975  94.8164  93.1957 15.08834664    19"
    ]
  },
  "52374": {
    "noradId": "52374",
    "tle": [
      "1 52374C 22045AV  26071.83173611  .00016198  00000+0  10157-2 0   711",
      "2 52374  53.2145 175.0182 0001273  88.1690  87.4160 15.08823695    16"
    ]
  },
  "52375": {
    "noradId": "52375",
    "tle": [
      "1 52375C 22045AW  26071.83034722  .00012567  00000+0  78787-3 0   711",
      "2 52375  53.2145 175.0238 0001067  93.8197  54.1813 15.08833924    17"
    ]
  },
  "52376": {
    "noradId": "52376",
    "tle": [
      "1 52376C 22045AX  26071.84145833  .01412000  00000+0  77737-3 0   710",
      "2 52376  53.2061 155.3010 0001504 348.7090 104.9418 16.17424058    14"
    ]
  },
  "52377": {
    "noradId": "52377",
    "tle": [
      "1 52377C 22045AY  26071.82826389  .00016555  00000+0  10382-2 0   717",
      "2 52377  53.2147 175.2540 0001086  79.2331 357.3387 15.08817672    14"
    ]
  },
  "52378": {
    "noradId": "52378",
    "tle": [
      "1 52378C 22045AZ  26071.82618056  .00016138  00000+0  10121-2 0   716",
      "2 52378  53.2153 175.0434 0001217  88.3522 137.0352 15.08820325    15"
    ]
  }
}